CCSDS_OMM_VERS = 2.0
CREATION_DATE  = 
ORIGINATOR     = 

OBJECT_NAME    = ALSAT-3A
OBJECT_ID      = 2026-009A
CENTER_NAME    = EARTH
REF_FRAME      = TEME
TIME_SYSTEM    = UTC
MEAN_ELEMENT_THEORY = SGP/SGP4

EPOCH          = 2026-01-19T22:34:43.301280
MEAN_MOTION    = 15.23427011
ECCENTRICITY   = .00114543
INCLINATION    = 97.4719
RA_OF_ASC_NODE = 94.6958
ARG_OF_PERICENTER = 250.5422
MEAN_ANOMALY   = 109.4578

EPHEMERIS_TYPE = 0
CLASSIFICATION_TYPE = U
NORAD_CAT_ID   = 67474
ELEMENT_SET_NO = 999
REV_AT_EPOCH   = 73
BSTAR          = .43591478E-3
MEAN_MOTION_DOT = .10332E-3
MEAN_MOTION_DDOT = 0

CCSDS_OMM_VERS = 2.0
CREATION_DATE  = 
ORIGINATOR     = 

OBJECT_NAME    = CZ-2C R/B
OBJECT_ID      = 2026-009B
CENTER_NAME    = EARTH
REF_FRAME      = TEME
TIME_SYSTEM    = UTC
MEAN_ELEMENT_THEORY = SGP/SGP4

EPOCH          = 2026-01-19T22:32:09.856608
MEAN_MOTION    = 15.02905892
ECCENTRICITY   = .00989981
INCLINATION    = 97.1813
RA_OF_ASC_NODE = 94.0542
ARG_OF_PERICENTER = 206.3204
MEAN_ANOMALY   = 153.2975

EPHEMERIS_TYPE = 0
CLASSIFICATION_TYPE = U
NORAD_CAT_ID   = 67475
ELEMENT_SET_NO = 999
REV_AT_EPOCH   = 72
BSTAR          = .42253831E-3
MEAN_MOTION_DOT = .6252E-4
MEAN_MOTION_DDOT = 0

CCSDS_OMM_VERS = 2.0
CREATION_DATE  = 
ORIGINATOR     = 

OBJECT_NAME    = TRANSPORTER-15DT
OBJECT_ID      = 2025-276DT
CENTER_NAME    = EARTH
REF_FRAME      = TEME
TIME_SYSTEM    = UTC
MEAN_ELEMENT_THEORY = SGP/SGP4

EPOCH          = 2026-01-17T14:46:47.244576
MEAN_MOTION    = 14.98282882
ECCENTRICITY   = .00089173
INCLINATION    = 97.5470
RA_OF_ASC_NODE = 93.5003
ARG_OF_PERICENTER = 314.8090
MEAN_ANOMALY   = 45.2407

EPHEMERIS_TYPE = 0
CLASSIFICATION_TYPE = U
NORAD_CAT_ID   = 67483
ELEMENT_SET_NO = 999
REV_AT_EPOCH   = 7
BSTAR          = .10211543E-3
MEAN_MOTION_DOT = .1158E-4
MEAN_MOTION_DDOT = 0

