ALSAT-3A                
1 67474U 26009A   26019.94077895  .00010332  00000+0  43591-3 0  9995
2 67474  97.4719  94.6958 0011454 250.5422 109.4578 15.23427011   733
CZ-2C R/B               
1 67475U 26009B   26019.93900297  .00006252  00000+0  42254-3 0  9997
2 67475  97.1813  94.0542 0098998 206.3204 153.2975 15.02905892   726
TRANSPORTER-15DT        
1 67483U 25276DT  26017.61582459  .00001158  00000+0  10212-3 0  9999
2 67483  97.5470  93.5003 0008917 314.8090  45.2407 14.98282882    73
